[{"OBJECT_NAME":"SAPPHIRE","OBJECT_ID":"2013-009C","EPOCH":"2026-03-09T22:57:28.647648","MEAN_MOTION":14.35209243,"ECCENTRICITY":0.00112275,"INCLINATION":98.4222,"RA_OF_ASC_NODE":250.7769,"ARG_OF_PERICENTER":178.7646,"MEAN_ANOMALY":181.357,"EPHEMERIS_TYPE":0,"CLASSIFICATION_TYPE":"U","NORAD_CAT_ID":39088,"ELEMENT_SET_NO":999,"REV_AT_EPOCH":68234,"BSTAR":9.3997997e-5,"MEAN_MOTION_DOT":2.26e-6,"MEAN_MOTION_DDOT":0},{"OBJECT_NAME":"ARIANE 1 DEB","OBJECT_ID":"1986-019D","EPOCH":"2026-03-09T22:19:23.783232","MEAN_MOTION":14.31242092,"ECCENTRICITY":0.0007901,"INCLINATION":98.269,"RA_OF_ASC_NODE":69.6825,"ARG_OF_PERICENTER":156.2068,"MEAN_ANOMALY":262.7553,"EPHEMERIS_TYPE":0,"CLASSIFICATION_TYPE":"U","NORAD_CAT_ID":16616,"ELEMENT_SET_NO":999,"REV_AT_EPOCH":8404,"BSTAR":0.00021194065,"MEAN_MOTION_DOT":5.19e-6,"MEAN_MOTION_DDOT":0}]
